[{"OBJECT_NAME":"ONEWEB-0497","OBJECT_ID":"2022-138D","EPOCH":"2026-03-09T23:34:05.464416","MEAN_MOTION":13.19724843,"ECCENTRICITY":0.00017048,"INCLINATION":87.9229,"RA_OF_ASC_NODE":324.7296,"ARG_OF_PERICENTER":82.5446,"MEAN_ANOMALY":277.5881,"EPHEMERIS_TYPE":0,"CLASSIFICATION_TYPE":"U","NORAD_CAT_ID":54116,"ELEMENT_SET_NO":999,"REV_AT_EPOCH":16372,"BSTAR":-0.00037639086,"MEAN_MOTION_DOT":-1.38e-6,"MEAN_MOTION_DDOT":0},{"OBJECT_NAME":"COSMOS 1823 DEB","OBJECT_ID":"1987-020DY","EPOCH":"2026-03-03T21:58:43.080096","MEAN_MOTION":12.85511505,"ECCENTRICITY":0.0220185,"INCLINATION":73.7887,"RA_OF_ASC_NODE":262.8638,"ARG_OF_PERICENTER":315.5575,"MEAN_ANOMALY":109.4687,"EPHEMERIS_TYPE":0,"CLASSIFICATION_TYPE":"U","NORAD_CAT_ID":29357,"ELEMENT_SET_NO":999,"REV_AT_EPOCH":58873,"BSTAR":0.00018661,"MEAN_MOTION_DOT":3.1e-7,"MEAN_MOTION_DDOT":0}]
